DIRECTV 11              
1 32729U 08013A   26066.20370257 -.00000128  00000+0  00000+0 0  9991
2 32729   0.0179 336.2780 0000292   8.7751 153.9925  1.00271577 44576
GALAXY 18 (G-18)        
1 32951U 08024A   26066.46572308  .00000023  00000+0  00000+0 0  9992
2 32951   0.0174 155.0870 0003255 218.1481 196.5953  1.00273629 44837
INTELSAT 25 (IS-25)     
1 33153U 08034A   26066.34673317 -.00000225  00000+0  00000+0 0  9992
2 33153   2.4447  81.5802 0003649 239.6850 297.1192  1.00272400 64677
GALAXY 19 (G-19)        
1 33376U 08045A   26066.33637911 -.00000141  00000+0  00000+0 0  9997
2 33376   0.0413 259.2403 0002780  91.9968 197.8906  1.00271506 63883
FM-5                    
1 35493U 09034A   26066.37405863 -.00000202  00000+0  00000+0 0  9999
2 35493   0.0398 270.7364 0001018 302.0608   0.7721  1.00270169 45624
INTELSAT 14 (IS-14)     
1 36097U 09064A   26066.28577627 -.00000275  00000+0  00000+0 0  9991
2 36097   0.0285  90.6543 0002471 255.1282 237.0965  1.00272511 59586
INTELSAT 15 (IS-15)     
1 36106U 09067A   26066.64510065  .00000000  00000+0  00000+0 0  9993
2 36106   0.0177 157.6757 0002350 204.2795 120.7883  1.00270297 40214
DIRECTV 12              
1 36131U 09075A   26066.36850411 -.00000105  00000+0  00000+0 0  9998
2 36131   0.0158 336.6448 0000261  41.4082 176.9653  1.00270401 45531
INTELSAT 16 (IS-16)     
1 36397U 10006A   26066.34628199 -.00000246  00000+0  00000+0 0  9998
2 36397   0.0145 105.1814 0002027 251.8991 216.4261  1.00272239 58636
XM-5                    
1 37185U 10053A   26066.46572308 -.00000025  00000+0  00000+0 0  9994
2 37185   0.0679 273.2977 0003480 253.8928  50.4356  1.00272750 56465
INTELSAT 17 (IS-17)     
1 37238U 10065B   26066.63784854 -.00000003  00000+0  00000+0 0  9992
2 37238   0.0140 174.7621 0002437 179.9901 106.2062  1.00273122 52226
INTELSAT 28 (IS-28)     
1 37392U 11016A   26066.44072536 -.00000226  00000+0  00000+0 0  9993
2 37392   1.5429  83.9418 0004608 263.5180 304.6384  1.00271867 52268
INTELSAT 18 (IS-18)     
1 37834U 11056A   26066.56502869  .00000052  00000+0  00000+0 0  9994
2 37834   0.0337 261.8630 0001903  86.7169 200.0991  1.00274887 52797
INTELSAT 22 (IS-22)     
1 38098U 12011A   26066.64020016 -.00000060  00000+0  00000+0 0  9997
2 38098   0.0083 152.5746 0001651 213.3276 102.0124  1.00271375  6178
INTELSAT 19 (IS-19)     
1 38356U 12030A   26066.52475303 -.00000058  00000+0  00000+0 0  9992
2 38356   0.0203 137.2123 0003017 212.7090 170.2074  1.00272968 49439
INTELSAT 20 (IS-20)     
1 38740U 12043A   26066.63878595 -.00000025  00000+0  00000+0 0  9999
2 38740   0.0211 135.5344 0002588  32.2812 295.9815  1.00271303 49733
INTELSAT 21 (IS-21)     
1 38749U 12045A   26066.28317626 -.00000287  00000+0  00000+0 0  9994
2 38749   0.0213 241.6789 0001857 115.4039 211.8495  1.00272371 49501
