[{"OBJECT_NAME":"DIRECTV 11","OBJECT_ID":"2008-013A","EPOCH":"2026-03-07T04:53:19.902048","MEAN_MOTION":1.00271577,"ECCENTRICITY":2.924e-5,"INCLINATION":0.0179,"RA_OF_ASC_NODE":336.278,"ARG_OF_PERICENTER":8.7751,"MEAN_ANOMALY":153.9925,"EPHEMERIS_TYPE":0,"CLASSIFICATION_TYPE":"U","NORAD_CAT_ID":32729,"ELEMENT_SET_NO":999,"REV_AT_EPOCH":4457,"BSTAR":0,"MEAN_MOTION_DOT":-1.28e-6,"MEAN_MOTION_DDOT":0},{"OBJECT_NAME":"GALAXY 18 (G-18)","OBJECT_ID":"2008-024A","EPOCH":"2026-03-07T11:10:38.474112","MEAN_MOTION":1.00273629,"ECCENTRICITY":0.00032551,"INCLINATION":0.0174,"RA_OF_ASC_NODE":155.087,"ARG_OF_PERICENTER":218.1481,"MEAN_ANOMALY":196.5953,"EPHEMERIS_TYPE":0,"CLASSIFICATION_TYPE":"U","NORAD_CAT_ID":32951,"ELEMENT_SET_NO":999,"REV_AT_EPOCH":4483,"BSTAR":0,"MEAN_MOTION_DOT":2.3e-7,"MEAN_MOTION_DDOT":0},{"OBJECT_NAME":"INTELSAT 25 (IS-25)","OBJECT_ID":"2008-034A","EPOCH":"2026-03-07T08:19:17.745888","MEAN_MOTION":1.002724,"ECCENTRICITY":0.00036492,"INCLINATION":2.4447,"RA_OF_ASC_NODE":81.5802,"ARG_OF_PERICENTER":239.685,"MEAN_ANOMALY":297.1192,"EPHEMERIS_TYPE":0,"CLASSIFICATION_TYPE":"U","NORAD_CAT_ID":33153,"ELEMENT_SET_NO":999,"REV_AT_EPOCH":6467,"BSTAR":0,"MEAN_MOTION_DOT":-2.25e-6,"MEAN_MOTION_DDOT":0},{"OBJECT_NAME":"GALAXY 19 (G-19)","OBJECT_ID":"2008-045A","EPOCH":"2026-03-07T08:04:23.155104","MEAN_MOTION":1.00271506,"ECCENTRICITY":0.000278,"INCLINATION":0.0413,"RA_OF_ASC_NODE":259.2403,"ARG_OF_PERICENTER":91.9968,"MEAN_ANOMALY":197.8906,"EPHEMERIS_TYPE":0,"CLASSIFICATION_TYPE":"U","NORAD_CAT_ID":33376,"ELEMENT_SET_NO":999,"REV_AT_EPOCH":6388,"BSTAR":0,"MEAN_MOTION_DOT":-1.41e-6,"MEAN_MOTION_DDOT":0},{"OBJECT_NAME":"FM-5","OBJECT_ID":"2009-034A","EPOCH":"2026-03-07T08:58:38.665632","MEAN_MOTION":1.00270169,"ECCENTRICITY":0.00010183,"INCLINATION":0.0398,"RA_OF_ASC_NODE":270.7364,"ARG_OF_PERICENTER":302.0608,"MEAN_ANOMALY":0.7721,"EPHEMERIS_TYPE":0,"CLASSIFICATION_TYPE":"U","NORAD_CAT_ID":35493,"ELEMENT_SET_NO":999,"REV_AT_EPOCH":4562,"BSTAR":0,"MEAN_MOTION_DOT":-2.02e-6,"MEAN_MOTION_DDOT":0},{"OBJECT_NAME":"INTELSAT 14 (IS-14)","OBJECT_ID":"2009-064A","EPOCH":"2026-03-07T06:51:31.069728","MEAN_MOTION":1.00272511,"ECCENTRICITY":0.00024713,"INCLINATION":0.0285,"RA_OF_ASC_NODE":90.6543,"ARG_OF_PERICENTER":255.1282,"MEAN_ANOMALY":237.0965,"EPHEMERIS_TYPE":0,"CLASSIFICATION_TYPE":"U","NORAD_CAT_ID":36097,"ELEMENT_SET_NO":999,"REV_AT_EPOCH":5958,"BSTAR":0,"MEAN_MOTION_DOT":-2.75e-6,"MEAN_MOTION_DDOT":0},{"OBJECT_NAME":"INTELSAT 15 (IS-15)","OBJECT_ID":"2009-067A","EPOCH":"2026-03-07T15:28:56.696160","MEAN_MOTION":1.00270297,"ECCENTRICITY":0.00023507,"INCLINATION":0.0177,"RA_OF_ASC_NODE":157.6757,"ARG_OF_PERICENTER":204.2795,"MEAN_ANOMALY":120.7883,"EPHEMERIS_TYPE":0,"CLASSIFICATION_TYPE":"U","NORAD_CAT_ID":36106,"ELEMENT_SET_NO":999,"REV_AT_EPOCH":4021,"BSTAR":0,"MEAN_MOTION_DOT":0,"MEAN_MOTION_DDOT":0},{"OBJECT_NAME":"DIRECTV 12","OBJECT_ID":"2009-075A","EPOCH":"2026-03-07T08:50:38.755104","MEAN_MOTION":1.00270401,"ECCENTRICITY":2.61e-5,"INCLINATION":0.0158,"RA_OF_ASC_NODE":336.6448,"ARG_OF_PERICENTER":41.4082,"MEAN_ANOMALY":176.9653,"EPHEMERIS_TYPE":0,"CLASSIFICATION_TYPE":"U","NORAD_CAT_ID":36131,"ELEMENT_SET_NO":999,"REV_AT_EPOCH":4553,"BSTAR":0,"MEAN_MOTION_DOT":-1.05e-6,"MEAN_MOTION_DDOT":0},{"OBJECT_NAME":"INTELSAT 16 (IS-16)","OBJECT_ID":"2010-006A","EPOCH":"2026-03-07T08:18:38.763936","MEAN_MOTION":1.00272239,"ECCENTRICITY":0.00020273,"INCLINATION":0.0145,"RA_OF_ASC_NODE":105.1814,"ARG_OF_PERICENTER":251.8991,"MEAN_ANOMALY":216.4261,"EPHEMERIS_TYPE":0,"CLASSIFICATION_TYPE":"U","NORAD_CAT_ID":36397,"ELEMENT_SET_NO":999,"REV_AT_EPOCH":5863,"BSTAR":0,"MEAN_MOTION_DOT":-2.46e-6,"MEAN_MOTION_DDOT":0},{"OBJECT_NAME":"XM-5","OBJECT_ID":"2010-053A","EPOCH":"2026-03-07T11:10:38.474112","MEAN_MOTION":1.0027275,"ECCENTRICITY":0.000348,"INCLINATION":0.0679,"RA_OF_ASC_NODE":273.2977,"ARG_OF_PERICENTER":253.8928,"MEAN_ANOMALY":50.4356,"EPHEMERIS_TYPE":0,"CLASSIFICATION_TYPE":"U","NORAD_CAT_ID":37185,"ELEMENT_SET_NO":999,"REV_AT_EPOCH":5646,"BSTAR":0,"MEAN_MOTION_DOT":-2.5e-7,"MEAN_MOTION_DDOT":0},{"OBJECT_NAME":"INTELSAT 17 (IS-17)","OBJECT_ID":"2010-065B","EPOCH":"2026-03-07T15:18:30.113856","MEAN_MOTION":1.00273122,"ECCENTRICITY":0.00024376,"INCLINATION":0.014,"RA_OF_ASC_NODE":174.7621,"ARG_OF_PERICENTER":179.9901,"MEAN_ANOMALY":106.2062,"EPHEMERIS_TYPE":0,"CLASSIFICATION_TYPE":"U","NORAD_CAT_ID":37238,"ELEMENT_SET_NO":999,"REV_AT_EPOCH":5222,"BSTAR":0,"MEAN_MOTION_DOT":-3.0e-8,"MEAN_MOTION_DDOT":0},{"OBJECT_NAME":"INTELSAT 28 (IS-28)","OBJECT_ID":"2011-016A","EPOCH":"2026-03-07T10:34:38.671104","MEAN_MOTION":1.00271867,"ECCENTRICITY":0.00046083,"INCLINATION":1.5429,"RA_OF_ASC_NODE":83.9418,"ARG_OF_PERICENTER":263.518,"MEAN_ANOMALY":304.6384,"EPHEMERIS_TYPE":0,"CLASSIFICATION_TYPE":"U","NORAD_CAT_ID":37392,"ELEMENT_SET_NO":999,"REV_AT_EPOCH":5226,"BSTAR":0,"MEAN_MOTION_DOT":-2.26e-6,"MEAN_MOTION_DDOT":0},{"OBJECT_NAME":"INTELSAT 18 (IS-18)","OBJECT_ID":"2011-056A","EPOCH":"2026-03-07T13:33:38.478816","MEAN_MOTION":1.00274887,"ECCENTRICITY":0.00019038,"INCLINATION":0.0337,"RA_OF_ASC_NODE":261.863,"ARG_OF_PERICENTER":86.7169,"MEAN_ANOMALY":200.0991,"EPHEMERIS_TYPE":0,"CLASSIFICATION_TYPE":"U","NORAD_CAT_ID":37834,"ELEMENT_SET_NO":999,"REV_AT_EPOCH":5279,"BSTAR":0,"MEAN_MOTION_DOT":5.2e-7,"MEAN_MOTION_DDOT":0},{"OBJECT_NAME":"INTELSAT 22 (IS-22)","OBJECT_ID":"2012-011A","EPOCH":"2026-03-07T15:21:53.293824","MEAN_MOTION":1.00271375,"ECCENTRICITY":0.00016512,"INCLINATION":0.0083,"RA_OF_ASC_NODE":152.5746,"ARG_OF_PERICENTER":213.3276,"MEAN_ANOMALY":102.0124,"EPHEMERIS_TYPE":0,"CLASSIFICATION_TYPE":"U","NORAD_CAT_ID":38098,"ELEMENT_SET_NO":999,"REV_AT_EPOCH":617,"BSTAR":0,"MEAN_MOTION_DOT":-6.0e-7,"MEAN_MOTION_DDOT":0},{"OBJECT_NAME":"INTELSAT 19 (IS-19)","OBJECT_ID":"2012-030A","EPOCH":"2026-03-07T12:35:38.661792","MEAN_MOTION":1.00272968,"ECCENTRICITY":0.00030173,"INCLINATION":0.0203,"RA_OF_ASC_NODE":137.2123,"ARG_OF_PERICENTER":212.709,"MEAN_ANOMALY":170.2074,"EPHEMERIS_TYPE":0,"CLASSIFICATION_TYPE":"U","NORAD_CAT_ID":38356,"ELEMENT_SET_NO":999,"REV_AT_EPOCH":4943,"BSTAR":0,"MEAN_MOTION_DOT":-5.8e-7,"MEAN_MOTION_DDOT":0},{"OBJECT_NAME":"INTELSAT 20 (IS-20)","OBJECT_ID":"2012-043A","EPOCH":"2026-03-07T15:19:51.106080","MEAN_MOTION":1.00271303,"ECCENTRICITY":0.0002588,"INCLINATION":0.0211,"RA_OF_ASC_NODE":135.5344,"ARG_OF_PERICENTER":32.2812,"MEAN_ANOMALY":295.9815,"EPHEMERIS_TYPE":0,"CLASSIFICATION_TYPE":"U","NORAD_CAT_ID":38740,"ELEMENT_SET_NO":999,"REV_AT_EPOCH":4973,"BSTAR":0,"MEAN_MOTION_DOT":-2.5e-7,"MEAN_MOTION_DDOT":0},{"OBJECT_NAME":"INTELSAT 21 (IS-21)","OBJECT_ID":"2012-045A","EPOCH":"2026-03-07T06:47:46.428864","MEAN_MOTION":1.00272371,"ECCENTRICITY":0.0001857,"INCLINATION":0.0213,"RA_OF_ASC_NODE":241.6789,"ARG_OF_PERICENTER":115.4039,"MEAN_ANOMALY":211.8495,"EPHEMERIS_TYPE":0,"CLASSIFICATION_TYPE":"U","NORAD_CAT_ID":38749,"ELEMENT_SET_NO":999,"REV_AT_EPOCH":4950,"BSTAR":0,"MEAN_MOTION_DOT":-2.87e-6,"MEAN_MOTION_DDOT":0}]
